NANOSATC-BR1            
1 40024U 14033Q   26186.03967014  .00031872  00000+0  10283-2 0  9990
2 40024  98.0709 220.0161 0005239 120.9121 239.2635 15.32077751656715
DTUSAT-2                
1 40030U 14033W   26185.93729946  .00011990  00000+0  64036-3 0  9990
2 40030  98.0874 184.7942 0008461 162.8514 197.3004 15.15257817655378
QB50P2                  
1 40032U 14033Y   26186.45812683  .00010362  00000+0  55148-3 0  9997
2 40032  98.0762 184.4789 0009306 110.6267 249.5962 15.15417297655437
POLYITAN-1              
1 40042U 14033AJ  26186.06105418  .00032793  00000+0  99713-3 0  9994
2 40042  98.0935 214.0203 0008541  92.3372 267.8847 15.33942082656334
CANX-4                  
1 40055U 14034C   26186.18769495  .00001347  00000+0  17983-3 0  9993
2 40055  98.3098  62.1598 0011866 318.1747  41.8557 14.81300141647197
CANX-5                  
1 40056U 14034D   26186.25346629  .00001352  00000+0  18042-3 0  9995
2 40056  98.3101  62.2726 0011850 318.1941  41.8364 14.81317660638017
GONETS-M 10             
1 40063U 14036C   26186.66441684  .00000040  00000+0  21773-3 0  9995
2 40063  82.5128 296.1983 0023007 102.1933 258.1725 12.42946045544549
METEOR-M 2              
1 40069U 14037A   26186.65814679 -.00000101  00000+0 -26857-4 0  9998
2 40069  98.5128 161.7432 0005768 356.0782   4.0349 14.21466141621947
DX1                     
1 40071U 14037C   26186.62740684  .00001142  00000+0  12478-3 0  9999
2 40071  98.3878 149.4496 0006406 203.3323 156.7603 14.90039991648850
GAOFEN-2                
1 40118U 14049A   26186.62220696  .00001595  00000+0  21313-3 0  9990
2 40118  98.0096 250.8117 0007497 162.5796 197.5675 14.80923338641962
CBERS 4                 
1 40336U 14079A   26186.64759924  .00000197  00000+0  83267-4 0  9992
2 40336  98.3516 242.8996 0001205  50.4760 309.6533 14.35514734606604
SMAP                    
1 40376U 15003A   26186.47303409  .00000569  00000+0  11922-3 0  9999
2 40376  98.1278 193.3086 0001517  98.0099 262.1275 14.63383753610292
GONETS-M 11             
1 40552U 15020A   26186.60329705  .00000053  00000+0  31318-3 0  9995
2 40552  82.4858  19.5135 0015737 325.4154  34.5901 12.42878236511028
GONETS-M 13             
1 40554U 15020C   26186.63087524  .00000030  00000+0  14356-3 0  9998
2 40554  82.4854  19.2347 0012910 293.9616  66.0111 12.42871614510991
DMC3-FM1                
1 40715U 15032A   26186.59125720  .00001304  00000+0  15598-3 0  9990
2 40715  97.6435  51.0420 0005759   9.7176 350.4151 14.85762547592645
DMC3-FM2                
1 40716U 15032B   26186.61323506  .00000500  00000+0  63468-4 0  9993
2 40716  97.6488  52.6496 0006477  13.0175 347.1207 14.85766499592644
CARBONITE 1 (CBNT-1)    
1 40718U 15032D   26186.66229087  .00003523  00000+0  43221-3 0  9991
2 40718  97.6522   3.9560 0013158 229.9110 130.0951 14.83651306592088
LILACSAT-2              
1 40908U 15049K   26186.58628251  .00020292  00000+0  33698-3 0  9996
2 40908  97.4624 224.1320 0007591 171.1055 189.0333 15.52101477598609
COSMOS 2507 (RODNIK-S *)
1 40920U 15050A   26186.66544766  .00000168  00000+0  11426-2 0  9993
2 40920  82.4912  68.1649 0009360 315.9419  44.0914 12.42927857489153
