OBJECT_NAME,OBJECT_ID,EPOCH,MEAN_MOTION,ECCENTRICITY,INCLINATION,RA_OF_ASC_NODE,ARG_OF_PERICENTER,MEAN_ANOMALY,EPHEMERIS_TYPE,CLASSIFICATION_TYPE,NORAD_CAT_ID,ELEMENT_SET_NO,REV_AT_EPOCH,BSTAR,MEAN_MOTION_DOT,MEAN_MOTION_DDOT
NANOSATC-BR1,2014-033Q,2026-07-05T00:57:07.500096,15.32077751,.000524,98.0709,220.0161,120.9121,239.2635,0,U,40024,999,65671,.10283E-2,.31872E-3,0
DTUSAT-2,2014-033W,2026-07-04T22:29:42.673344,15.15257817,.0008462,98.0874,184.7942,162.8514,197.3004,0,U,40030,999,65537,.64036E-3,.1199E-3,0
QB50P2,2014-033Y,2026-07-05T10:59:42.158112,15.15417297,.0009307,98.0762,184.4789,110.6267,249.5962,0,U,40032,999,65543,.55148E-3,.10362E-3,0
POLYITAN-1,2014-033AJ,2026-07-05T01:27:55.081152,15.33942082,.0008541,98.0935,214.0203,92.3372,267.8847,0,U,40042,999,65633,.99713E-3,.32793E-3,0
CANX-4,2014-034C,2026-07-05T04:30:16.842816,14.81300141,.0011867,98.3098,62.1598,318.1747,41.8557,0,U,40055,999,64719,.17983E-3,.1347E-4,0
CANX-5,2014-034D,2026-07-05T06:04:59.486592,14.81317660,.001185,98.3101,62.2726,318.1941,41.8364,0,U,40056,999,63801,.18042E-3,.1352E-4,0
GONETS-M 10,2014-036C,2026-07-05T15:56:45.614976,12.42946045,.00230077,82.5128,296.1983,102.1933,258.1725,0,U,40063,999,54454,.21772683E-3,.4E-6,0
METEOR-M 2,2014-037A,2026-07-05T15:47:43.882656,14.21466141,.00057685,98.5128,161.7432,356.0782,4.0349,0,U,40069,999,62194,-.26856998E-4,-.101E-5,0
DX1,2014-037C,2026-07-05T15:03:27.950976,14.90039991,.00064068,98.3878,149.4496,203.3323,156.7603,0,U,40071,999,64885,.12478468E-3,.1142E-4,0
GAOFEN-2,2014-049A,2026-07-05T14:55:58.681344,14.80923338,.00074975,98.0096,250.8117,162.5796,197.5675,0,U,40118,999,64196,.21312755E-3,.1595E-4,0
CBERS 4,2014-079A,2026-07-05T15:32:32.574336,14.35514734,.00012054,98.3516,242.8996,50.4760,309.6533,0,U,40336,999,60660,.83266582E-4,.197E-5,0
SMAP,2015-003A,2026-07-05T11:21:10.145376,14.63383753,.0001517,98.1278,193.3086,98.0099,262.1275,0,U,40376,999,61029,.11922E-3,.569E-5,0
GONETS-M 11,2015-020A,2026-07-05T14:28:44.865120,12.42878236,.00157376,82.4858,19.5135,325.4154,34.5901,0,U,40552,999,51102,.31317911E-3,.53E-6,0
GONETS-M 13,2015-020C,2026-07-05T15:08:27.620736,12.42871614,.00129107,82.4854,19.2347,293.9616,66.0111,0,U,40554,999,51099,.14356219E-3,.3E-6,0
DMC3-FM1,2015-032A,2026-07-05T14:11:24.622080,14.85762547,.00057595,97.6435,51.0420,9.7176,350.4151,0,U,40715,999,59264,.15597735E-3,.1304E-4,0
DMC3-FM2,2015-032B,2026-07-05T14:43:03.509184,14.85766499,.00064778,97.6488,52.6496,13.0175,347.1207,0,U,40716,999,59264,.6346755E-4,.5E-5,0
CARBONITE 1 (CBNT-1),2015-032D,2026-07-05T15:53:41.931168,14.83651306,.00131586,97.6522,3.9560,229.9110,130.0951,0,U,40718,999,59208,.4322118E-3,.3523E-4,0
LILACSAT-2,2015-049K,2026-07-05T14:04:14.808864,15.52101477,.00075915,97.4624,224.1320,171.1055,189.0333,0,U,40908,999,59860,.3369845E-3,.20292E-3,0
COSMOS 2507 (RODNIK-S 13),2015-050A,2026-07-05T15:58:14.677824,12.42927857,.00093601,82.4912,68.1649,315.9419,44.0914,0,U,40920,999,48915,.11425565E-2,.168E-5,0
